XM-2 (ROCK)             
1 26724U 01012A   07271.53260780 -.00000027  00000-0  10000-3 0  2754
2 26724   0.0949 271.1766 0000597 200.2683 332.1050  1.00271190 24008
XM-1 (ROLL)             
1 26761U 01018A   07272.17300896 -.00000209  00000-0  10000-3 0   531
2 26761   0.0263 271.4964 0000678 206.4990 226.6343  1.00271593 23479
XM-3 (RHYTHM)           
1 28626U 05008A   07271.12887700 -.00000208  00000-0  10000-3 0  3840
2 28626   0.0060 298.1067 0000556 138.6152 251.1244  1.00270904  9503
XM-4 (BLUES)            
1 29520U 06049A   07271.58019947 -.00000028  00000-0  10000-3 0  1411
2 29520   0.0074 192.9564 0000263 164.0652 103.8633  1.00272702  3459



